{
  "type": "FeatureCollection",
  "name": "Sydney Airport runway ends and helipad",
  "crs": {
    "type": "name",
    "properties": {
      "name": "urn:ogc:def:crs:OGC:1.3:CRS84"
    }
  },
  "features": [
    {
      "type": "Feature",
      "properties": {
        "feature_type": "runway",
        "runway_pair": "16R/34L",
        "end_1": "16R",
        "end_2": "34L",
        "coordinate_source": "endorsed PDF Runway End table"
      },
      "geometry": {
        "type": "LineString",
        "coordinates": [
          [
            151.1715818,
            -33.92935952
          ],
          [
            151.1806396,
            -33.96427335
          ]
        ]
      }
    },
    {
      "type": "Feature",
      "properties": {
        "feature_type": "runway_endpoint",
        "runway_pair": "16R/34L",
        "runway_end": "16R",
        "latitude": -33.92935952,
        "longitude": 151.1715818,
        "coordinate_source": "endorsed PDF Runway End table"
      },
      "geometry": {
        "type": "Point",
        "coordinates": [
          151.1715818,
          -33.92935952
        ]
      }
    },
    {
      "type": "Feature",
      "properties": {
        "feature_type": "runway_endpoint",
        "runway_pair": "16R/34L",
        "runway_end": "34L",
        "latitude": -33.96427335,
        "longitude": 151.1806396,
        "coordinate_source": "endorsed PDF Runway End table"
      },
      "geometry": {
        "type": "Point",
        "coordinates": [
          151.1806396,
          -33.96427335
        ]
      }
    },
    {
      "type": "Feature",
      "properties": {
        "feature_type": "runway",
        "runway_pair": "07/25",
        "end_1": "07",
        "end_2": "25",
        "coordinate_source": "endorsed PDF Runway End table"
      },
      "geometry": {
        "type": "LineString",
        "coordinates": [
          [
            151.1636248,
            -33.94374984
          ],
          [
            151.1899609,
            -33.93753931
          ]
        ]
      }
    },
    {
      "type": "Feature",
      "properties": {
        "feature_type": "runway_endpoint",
        "runway_pair": "07/25",
        "runway_end": "07",
        "latitude": -33.94374984,
        "longitude": 151.1636248,
        "coordinate_source": "endorsed PDF Runway End table"
      },
      "geometry": {
        "type": "Point",
        "coordinates": [
          151.1636248,
          -33.94374984
        ]
      }
    },
    {
      "type": "Feature",
      "properties": {
        "feature_type": "runway_endpoint",
        "runway_pair": "07/25",
        "runway_end": "25",
        "latitude": -33.93753931,
        "longitude": 151.1899609,
        "coordinate_source": "endorsed PDF Runway End table"
      },
      "geometry": {
        "type": "Point",
        "coordinates": [
          151.1899609,
          -33.93753931
        ]
      }
    },
    {
      "type": "Feature",
      "properties": {
        "feature_type": "runway",
        "runway_pair": "16L/34R",
        "end_1": "16L",
        "end_2": "34R",
        "coordinate_source": "endorsed PDF Runway End table"
      },
      "geometry": {
        "type": "LineString",
        "coordinates": [
          [
            151.1883202,
            -33.94961638
          ],
          [
            151.1938928,
            -33.97110532
          ]
        ]
      }
    },
    {
      "type": "Feature",
      "properties": {
        "feature_type": "runway_endpoint",
        "runway_pair": "16L/34R",
        "runway_end": "16L",
        "latitude": -33.94961638,
        "longitude": 151.1883202,
        "coordinate_source": "endorsed PDF Runway End table"
      },
      "geometry": {
        "type": "Point",
        "coordinates": [
          151.1883202,
          -33.94961638
        ]
      }
    },
    {
      "type": "Feature",
      "properties": {
        "feature_type": "runway_endpoint",
        "runway_pair": "16L/34R",
        "runway_end": "34R",
        "latitude": -33.97110532,
        "longitude": 151.1938928,
        "coordinate_source": "endorsed PDF Runway End table"
      },
      "geometry": {
        "type": "Point",
        "coordinates": [
          151.1938928,
          -33.97110532
        ]
      }
    },
    {
      "type": "Feature",
      "properties": {
        "feature_type": "helipad",
        "latitude": -33.93899,
        "longitude": 151.1909,
        "coordinate_source": "endorsed PDF Runway End table"
      },
      "geometry": {
        "type": "Point",
        "coordinates": [
          151.1909,
          -33.93899
        ]
      }
    }
  ]
}